NORAD_CAT_ID,OBJECT_NAME,OBJECT_TYPE,EPOCH,MEAN_MOTION,ECCENTRICITY,INCLINATION,RA_OF_ASC_NODE,ARG_OF_PERICENTER,MEAN_ANOMALY,BSTAR,MEAN_MOTION_DOT,MEAN_MOTION_DDOT,TLE_LINE0,TLE_LINE1,TLE_LINE2,SEMIMAJOR_AXIS,PERIOD,APOGEE,PERIGEE,DECAYED
49748.0,STARLINK-3248,PAYLOAD,2022-11-14 23:35:52,15.08843224,0.0002379,53.2151,184.2093,32.7499,327.3641,0.00046766,7.163e-05,0.0,0 STARLINK-3248,1 49748U 21115AA  22318.98325078  .00007163  00000-0  46766-3 0  9999,2 49748  53.2151 184.2093 0002379  32.7499 327.3641 15.08843224 53879,6917.871,95.437,541.381,538.09,0.0
49748.0,STARLINK-3248,PAYLOAD,2022-11-15 20:15:53,15.08834898,0.0002392,53.2153,180.3429,35.4291,324.6859,7.4297e-05,8.94e-06,0.0,0 STARLINK-3248,1 49748U 21115AA  22319.84437478  .00000894  00000-0  74297-4 0  9998,2 49748  53.2153 180.3429 0002392  35.4291 324.6859 15.08834898 54000,6917.896,95.438,541.4159999999998,538.106,0.0
49748.0,STARLINK-3248,PAYLOAD,2022-11-16 13:45:08,15.08844842,0.0002431,53.2155,177.0702,36.8026,323.3132,0.00015367,2.159e-05,0.0,0 STARLINK-3248,1 49748U 21115AA  22320.57301132  .00002159  00000-0  15367-3 0  9995,2 49748  53.2155 177.0702 0002431  36.8026 323.3132 15.08844842 53003,6917.866,95.437,541.4119999999998,538.049,0.0
49748.0,STARLINK-3248,PAYLOAD,2022-11-16 20:06:40,15.08839595,0.0002345,53.2155,175.8777,35.1288,324.9859,6.6798e-05,7.75e-06,0.0,0 STARLINK-3248,1 49748U 21115AA  22320.83797363  .00000775  00000-0  66798-4 0  9996,2 49748  53.2155 175.8777 0002345  35.1288 324.9859 15.08839595 53043,6917.882,95.438,541.369,538.124,0.0
49748.0,STARLINK-3248,PAYLOAD,2022-11-17 00:52:50,15.0883221,0.0002349,53.2153,174.9893,34.205,325.9093,-7.428300000000001e-05,-1.47e-05,0.0,0 STARLINK-3248,1 49748U 21115AA  22321.03669703 -.00001470  00000-0 -74283-4 0  9998,2 49748  53.2153 174.9893 0002349  34.2050 325.9093 15.08832210 54185,6917.904,95.438,541.394,538.144,0.0
49748.0,STARLINK-3248,PAYLOAD,2022-11-17 07:14:23,15.08836046,0.0002385,53.2153,173.7999,34.1486,325.9659,1.1302e-05,-1.09e-06,0.0,0 STARLINK-3248,1 49748U 21115AA  22321.30165775 -.00000109  00000-0  11302-4 0  9998,2 49748  53.2153 173.7999 0002385  34.1486 325.9659 15.08836046 53112,6917.892,95.438,541.4069999999998,538.1080000000002,0.0
49748.0,STARLINK-3248,PAYLOAD,2022-11-17 16:46:42,15.08837439,0.0002358,53.2152,172.0162,33.6066,326.5075,4.2448e-05,3.87e-06,0.0,0 STARLINK-3248,1 49748U 21115AA  22321.69909862  .00000387  00000-0  42448-4 0  9995,2 49748  53.2152 172.0162 0002358  33.6066 326.5075 15.08837439 53175,6917.888000000001,95.438,541.384,538.122,0.0
49748.0,STARLINK-3248,PAYLOAD,2022-11-18 07:05:10,15.08841885,0.0002346,53.216,169.3395,35.0612,325.0535,7.2033e-05,8.58e-06,0.0,0 STARLINK-3248,1 49748U 21115AA  22322.29525795  .00000858  00000-0  72033-4 0  9997,2 49748  53.2160 169.3395 0002346  35.0612 325.0535 15.08841885 54379,6917.875,95.437,541.363,538.117,0.0
49748.0,STARLINK-3248,PAYLOAD,2022-11-18 18:12:52,15.08841597,0.0002383,53.2158,167.2581,36.4326,323.6828,0.00020613,2.994e-05,0.0,0 STARLINK-3248,1 49748U 21115AA  22322.75893664  .00002994  00000-0  20613-3 0  9990,2 49748  53.2158 167.2581 0002383  36.4326 323.6828 15.08841597 53332,6917.876,95.437,541.389,538.092,0.0
49748.0,STARLINK-3248,PAYLOAD,2022-11-19 06:55:56,15.08849615,0.0002448,53.215,164.8795,36.9259,323.1902,0.00027186,4.042e-05,0.0,0 STARLINK-3248,1 49748U 21115AA  22323.28885403  .00004042  00000-0  27186-3 0  9999,2 49748  53.2150 164.8795 0002448  36.9259 323.1902 15.08849615 53412,6917.851,95.437,541.409,538.023,0.0
49748.0,STARLINK-3248,PAYLOAD,2022-11-19 13:17:29,15.08849234,0.0002425,53.2149,163.6902,36.9366,323.1793,0.00021743,3.175e-05,0.0,0 STARLINK-3248,1 49748U 21115AA  22323.55381317  .00003175  00000-0  21743-3 0  9993,2 49748  53.2149 163.6902 0002425  36.9366 323.1793 15.08849234 54563,6917.852,95.437,541.395,538.04,0.0
49748.0,STARLINK-3248,PAYLOAD,2022-11-19 19:39:02,15.08842686,0.0002502,53.215,162.5003,38.1012,322.0157,9.515e-05,1.226e-05,0.0,0 STARLINK-3248,1 49748U 21115AA  22323.81877577  .00001226  00000-0  95150-4 0  9999,2 49748  53.2150 162.5003 0002502  38.1012 322.0157 15.08842686 53490,6917.871999999999,95.437,541.4680000000002,538.006,0.0
49748.0,STARLINK-3248,PAYLOAD,2022-11-19 22:49:48,15.08838989,0.0002415,53.2149,161.9054,37.8996,322.2165,8.7116e-06,-1.5e-06,0.0,0 STARLINK-3248,1 49748U 21115AA  22323.95125728 -.00000150  00000-0  87116-5 0  9998,2 49748  53.2149 161.9054 0002415  37.8996 322.2165 15.08838989 54625,6917.8830000000025,95.438,541.419,538.078,0.0
49748.0,STARLINK-3248,PAYLOAD,2022-11-20 13:08:16,15.08842382,0.0002459,53.2145,159.2288,38.6002,321.5166,5.3148e-05,5.58e-06,0.0,0 STARLINK-3248,1 49748U 21115AA  22324.54741630  .00000558  00000-0  53148-4 0  9998,2 49748  53.2145 159.2288 0002459  38.6002 321.5166 15.08842382 53607,6917.873000000001,95.437,541.439,538.0369999999998,0.0
49748.0,STARLINK-3248,PAYLOAD,2022-11-20 19:29:49,15.08844342,0.0002512,53.2146,158.0398,37.9568,322.1601,6.6505e-05,7.699999999999999e-06,0.0,0 STARLINK-3248,1 49748U 21115AA  22324.81237483  .00000770  00000-0  66505-4 0  9991,2 49748  53.2146 158.0398 0002512  37.9568 322.1601 15.08844342 53649,6917.8669999999975,95.437,541.47,537.994,0.0
49748.0,STARLINK-3248,PAYLOAD,2022-11-21 06:37:30,15.08848282,0.000254,53.2144,155.9581,38.6109,321.5064,0.00012466,1.697e-05,0.0,0 STARLINK-3248,1 49748U 21115AA  22325.27605256  .00001697  00000-0  12466-3 0  9994,2 49748  53.2144 155.9581 0002540  38.6109 321.5064 15.08848282 54821,6917.855,95.437,541.477,537.9630000000002,0.0
49748.0,STARLINK-3248,PAYLOAD,2022-11-21 12:59:03,15.08854241,0.000256,53.2142,154.7685,37.9519,322.1653,-6.6545e-05,-1.348e-05,0.0,0 STARLINK-3248,1 49748U 21115AA  22325.54100807 -.00001348  00000-0 -66545-4 0  9999,2 49748  53.2142 154.7685 0002560  37.9519 322.1653 15.08854241 53754,6917.837,95.437,541.4730000000002,537.931,0.0
49748.0,STARLINK-3248,PAYLOAD,2022-11-21 16:09:51,15.08817312,0.0002188,53.2142,154.1743,41.8697,318.2462,0.001123,0.00017619,0.0,0 STARLINK-3248,1 49748U 21115AA  22325.67351157  .00017619  00000-0  11230-2 0  9994,2 49748  53.2142 154.1743 0002188  41.8697 318.2462 15.08817312 54887,6917.95,95.439,541.328,538.3009999999998,0.0
49748.0,STARLINK-3248,PAYLOAD,2022-11-21 19:20:35,15.08848117,0.000253,53.2144,153.5791,40.2699,319.8481,0.00025869,3.832e-05,0.0,0 STARLINK-3248,1 49748U 21115AA  22325.80597138  .00003832  00000-0  25869-3 0  9996,2 49748  53.2144 153.5791 0002530  40.2699 319.8481 15.08848117 53795,6917.856,95.437,541.471,537.97,0.0
49748.0,STARLINK-3248,PAYLOAD,2022-11-21 22:31:22,15.08849258,0.0002544,53.2144,152.9843,40.4756,319.6425,0.00026084,3.866e-05,0.0,0 STARLINK-3248,1 49748U 21115AA  22325.93845050  .00003866  00000-0  26084-3 0  9996,2 49748  53.2144 152.9843 0002544  40.4756 319.6425 15.08849258 54926,6917.852,95.437,541.477,537.957,0.0
49748.0,STARLINK-3248,PAYLOAD,2022-11-22 12:49:51,15.08833556,0.0002605,53.2144,150.308,42.6568,317.4626,-4.7985e-05,-1.052e-05,0.0,0 STARLINK-3248,1 49748U 21115AA  22326.53461820 -.00001052  00000-0 -47985-4 0  9993,2 49748  53.2144 150.3080 0002605  42.6568 317.4626 15.08833556 55018,6917.9,95.438,541.567,537.9630000000002,0.0
49748.0,STARLINK-3248,PAYLOAD,2022-11-22 20:46:46,15.08834367,0.0002589,53.2161,148.8209,43.85,316.2697,-7.0234e-06,-4e-06,0.0,0 STARLINK-3248,1 49748U 21115AA  22326.86582045 -.00000400  00000-0 -70234-5 0  9992,2 49748  53.2161 148.8209 0002589  43.8500 316.2697 15.08834367 53959,6917.898,95.438,541.554,537.972,0.0
49748.0,STARLINK-3248,PAYLOAD,2022-11-23 12:40:38,15.08839307,0.0002486,53.2157,145.8471,44.6922,315.427,1.469e-05,-5.5e-07,0.0,0 STARLINK-3248,1 49748U 21115AA  22327.52821766 -.00000055  00000-0  14690-4 0  9990,2 49748  53.2157 145.8471 0002486  44.6922 315.4270 15.08839307 54054,6917.8830000000025,95.438,541.467,538.028,0.0
49748.0,STARLINK-3248,PAYLOAD,2022-11-23 20:37:33,15.08840924,0.000255,53.2157,144.3606,43.0016,317.1175,1.4751e-05,-5.4e-07,0.0,0 STARLINK-3248,1 49748U 21115AA  22327.85941687 -.00000054  00000-0  14751-4 0  9998,2 49748  53.2157 144.3606 0002550  43.0016 317.1175 15.08840924 55216,6917.878000000002,95.437,541.507,537.979,0.0
49748.0,STARLINK-3248,PAYLOAD,2022-11-24 10:56:01,15.08838316,0.0002542,53.2157,141.6842,44.0209,316.0985,0.00013349,1.837e-05,0.0,0 STARLINK-3248,1 49748U 21115AA  22328.45557763  .00001837  00000-0  13349-3 0  9993,2 49748  53.2157 141.6842 0002542  44.0209 316.0985 15.08838316 54199,6917.886,95.438,541.509,537.992,0.0
49748.0,STARLINK-3248,PAYLOAD,2022-11-24 18:52:57,15.08840484,0.0002544,53.2161,140.1973,43.8409,316.2785,0.00013034,1.787e-05,0.0,0 STARLINK-3248,1 49748U 21115AA  22328.78677733  .00001787  00000-0  13034-3 0  9994,2 49748  53.2161 140.1973 0002544  43.8409 316.2785 15.08840484 54249,6917.879,95.438,541.504,537.984,0.0
49748.0,STARLINK-3248,PAYLOAD,2022-11-25 04:25:16,15.0884186,0.0002593,53.2162,138.4131,44.3875,315.7325,0.00012068,1.633e-05,0.0,0 STARLINK-3248,1 49748U 21115AA  22329.18421605  .00001633  00000-0  12068-3 0  9990,2 49748  53.2162 138.4131 0002593  44.3875 315.7325 15.08841860 55416,6917.875,95.437,541.534,537.946,0.0
49748.0,STARLINK-3248,PAYLOAD,2022-11-25 12:22:11,15.08845867,0.0002594,53.2164,136.9262,45.0242,315.096,0.00015386,2.162e-05,0.0,0 STARLINK-3248,1 49748U 21115AA  22329.51541372  .00002162  00000-0  15386-3 0  9995,2 49748  53.2164 136.9262 0002594  45.0242 315.0960 15.08845867 54354,6917.861999999999,95.437,541.5219999999998,537.933,0.0
49748.0,STARLINK-3248,PAYLOAD,2022-11-25 18:43:44,15.08839866,0.0002423,53.2164,135.7379,45.7185,314.4006,7.9512e-05,9.77e-06,0.0,0 STARLINK-3248,1 49748U 21115AA  22329.78037849  .00000977  00000-0  79512-4 0  9997,2 49748  53.2164 135.7379 0002423  45.7185 314.4006 15.08839866 54394,6917.880999999999,95.438,541.422,538.07,0.0
